[
    {
        "Altitude(m)": 571380.7767385242,
        "Argument of Periapsis(deg)": -0.03013754771062987,
        "Eccentricity": 0.0,
        "Inclination(deg)": 97.0,
        "Latitude(deg)": -20.842886828023655,
        "Longitude(deg)": -100.47199392174696,
        "Mean Anomaly(deg)": 339.2602910255834,
        "RAAN(deg)": 0.007929404824681026,
        "Satellite Name": "Starlink Shell 3 1631",
        "Satellite Number": 1631,
        "Semi-Major Axis(m)": 6938478.169268562,
        "Time(s)": 760
    },
    {
        "Altitude(m)": 571175.6433904074,
        "Argument of Periapsis(deg)": -0.030534094391032898,
        "Eccentricity": 0.0,
        "Inclination(deg)": 97.0,
        "Latitude(deg)": -20.22059361847623,
        "Longitude(deg)": -100.6004115298649,
        "Mean Anomaly(deg)": 339.88576722328844,
        "RAAN(deg)": 0.008033739098689987,
        "Satellite Name": "Starlink Shell 3 1631",
        "Satellite Number": 1631,
        "Semi-Major Axis(m)": 6938478.169268562,
        "Time(s)": 770
    },
    {
        "Altitude(m)": 570973.4474897812,
        "Argument of Periapsis(deg)": -0.030930641071435925,
        "Eccentricity": 0.0,
        "Inclination(deg)": 97.0,
        "Latitude(deg)": -19.598188538643686,
        "Longitude(deg)": -100.7281475543984,
        "Mean Anomaly(deg)": 340.5112434209935,
        "RAAN(deg)": 0.008138073372698949,
        "Satellite Name": "Starlink Shell 3 1631",
        "Satellite Number": 1631,
        "Semi-Major Axis(m)": 6938478.169268562,
        "Time(s)": 780
    },
    {
        "Altitude(m)": 570774.2589765626,
        "Argument of Periapsis(deg)": -0.031327187751838945,
        "Eccentricity": 0.0,
        "Inclination(deg)": 97.0,
        "Latitude(deg)": -18.975674671554874,
        "Longitude(deg)": -100.85522950905514,
        "Mean Anomaly(deg)": 341.1367196186985,
        "RAAN(deg)": 0.008242407646707908,
        "Satellite Name": "Starlink Shell 3 1631",
        "Satellite Number": 1631,
        "Semi-Major Axis(m)": 6938478.169268562,
        "Time(s)": 790
    },
    {
        "Altitude(m)": 570578.1462574354,
        "Argument of Periapsis(deg)": -0.031723734432241975,
        "Eccentricity": 0.0,
        "Inclination(deg)": 97.0,
        "Latitude(deg)": -18.35305508505597,
        "Longitude(deg)": -100.98168469377892,
        "Mean Anomaly(deg)": 341.76219581640356,
        "RAAN(deg)": 0.00834674192071687,
        "Satellite Name": "Starlink Shell 3 1631",
        "Satellite Number": 1631,
        "Semi-Major Axis(m)": 6938478.169268562,
        "Time(s)": 800
    },
    {
        "Altitude(m)": 570385.1761748317,
        "Argument of Periapsis(deg)": -0.032120281112645,
        "Eccentricity": 0.0,
        "Inclination(deg)": 97.0,
        "Latitude(deg)": -17.730332833402148,
        "Longitude(deg)": -101.10753972738227,
        "Mean Anomaly(deg)": 342.38767201410855,
        "RAAN(deg)": 0.008451076194725831,
        "Satellite Name": "Starlink Shell 3 1631",
        "Satellite Number": 1631,
        "Semi-Major Axis(m)": 6938478.169268562,
        "Time(s)": 810
    },
    {
        "Altitude(m)": 570195.4139766824,
        "Argument of Periapsis(deg)": -0.03251682779304802,
        "Eccentricity": 0.0,
        "Inclination(deg)": 97.0,
        "Latitude(deg)": -17.107510958733677,
        "Longitude(deg)": -101.23282007854915,
        "Mean Anomaly(deg)": 343.0131482118136,
        "RAAN(deg)": 0.00855541046873479,
        "Satellite Name": "Starlink Shell 3 1631",
        "Satellite Number": 1631,
        "Semi-Major Axis(m)": 6938478.169268562,
        "Time(s)": 820
    },
    {
        "Altitude(m)": 570008.9232869301,
        "Argument of Periapsis(deg)": -0.032913374473451044,
        "Eccentricity": 0.0,
        "Inclination(deg)": 97.0,
        "Latitude(deg)": -16.48459249244129,
        "Longitude(deg)": -101.3575511081849,
        "Mean Anomaly(deg)": 343.6386244095186,
        "RAAN(deg)": 0.008659744742743752,
        "Satellite Name": "Starlink Shell 3 1631",
        "Satellite Number": 1631,
        "Semi-Major Axis(m)": 6938478.169268562,
        "Time(s)": 830
    },
    {
        "Altitude(m)": 569825.7660768281,
        "Argument of Periapsis(deg)": -0.03330992115385407,
        "Eccentricity": 0.0,
        "Inclination(deg)": 97.0,
        "Latitude(deg)": -15.861580456429039,
        "Longitude(deg)": -101.4817575974621,
        "Mean Anomaly(deg)": 344.2641006072237,
        "RAAN(deg)": 0.008764079016752713,
        "Satellite Name": "Starlink Shell 3 1631",
        "Satellite Number": 1631,
        "Semi-Major Axis(m)": 6938478.169268562,
        "Time(s)": 840
    },
    {
        "Altitude(m)": 569646.0026370882,
        "Argument of Periapsis(deg)": -0.0337064678342571,
        "Eccentricity": 0.0,
        "Inclination(deg)": 97.0,
        "Latitude(deg)": -15.238477864279776,
        "Longitude(deg)": -101.6054632745286,
        "Mean Anomaly(deg)": 344.88957680492877,
        "RAAN(deg)": 0.008868413290761674,
        "Satellite Name": "Starlink Shell 3 1631",
        "Satellite Number": 1631,
        "Semi-Major Axis(m)": 6938478.169268562,
        "Time(s)": 850
    },
    {
        "Altitude(m)": 569469.6915508051,
        "Argument of Periapsis(deg)": -0.03410301451466012,
        "Eccentricity": 0.0,
        "Inclination(deg)": 97.0,
        "Latitude(deg)": -14.61528772232868,
        "Longitude(deg)": -101.72869202093342,
        "Mean Anomaly(deg)": 345.5150530026338,
        "RAAN(deg)": 0.008972747564770634,
        "Satellite Name": "Starlink Shell 3 1631",
        "Satellite Number": 1631,
        "Semi-Major Axis(m)": 6938478.169268562,
        "Time(s)": 860
    },
    {
        "Altitude(m)": 569296.8896672754,
        "Argument of Periapsis(deg)": -0.034499561195063144,
        "Eccentricity": 0.0,
        "Inclination(deg)": 97.0,
        "Latitude(deg)": -13.992013030651586,
        "Longitude(deg)": -101.8514665554245,
        "Mean Anomaly(deg)": 346.14052920033885,
        "RAAN(deg)": 0.009077081838779597,
        "Satellite Name": "Starlink Shell 3 1631",
        "Satellite Number": 1631,
        "Semi-Major Axis(m)": 6938478.169268562,
        "Time(s)": 870
    },
    {
        "Altitude(m)": 569127.6520766203,
        "Argument of Periapsis(deg)": -0.03489610787546617,
        "Eccentricity": 0.0,
        "Inclination(deg)": 97.0,
        "Latitude(deg)": -13.368656783971415,
        "Longitude(deg)": -101.97380963810761,
        "Mean Anomaly(deg)": 346.7660053980439,
        "RAAN(deg)": 0.009181416112788556,
        "Satellite Name": "Starlink Shell 3 1631",
        "Satellite Number": 1631,
        "Semi-Major Axis(m)": 6938478.169268562,
        "Time(s)": 880
    },
    {
        "Altitude(m)": 568962.0320853207,
        "Argument of Periapsis(deg)": -0.0352926545558692,
        "Eccentricity": 0.0,
        "Inclination(deg)": 97.0,
        "Latitude(deg)": -12.745221972489393,
        "Longitude(deg)": -102.09574359261012,
        "Mean Anomaly(deg)": 347.3914815957489,
        "RAAN(deg)": 0.009285750386797516,
        "Satellite Name": "Starlink Shell 3 1631",
        "Satellite Number": 1631,
        "Semi-Major Axis(m)": 6938478.169268562,
        "Time(s)": 890
    },
    {
        "Altitude(m)": 568800.0811926196,
        "Argument of Periapsis(deg)": -0.035689201236272214,
        "Eccentricity": 0.0,
        "Inclination(deg)": 97.0,
        "Latitude(deg)": -12.121711582645444,
        "Longitude(deg)": -102.21728982728901,
        "Mean Anomaly(deg)": 348.01695779345397,
        "RAAN(deg)": 0.009390084660806479,
        "Satellite Name": "Starlink Shell 3 1631",
        "Satellite Number": 1631,
        "Semi-Major Axis(m)": 6938478.169268562,
        "Time(s)": 900
    },
    {
        "Altitude(m)": 568641.8490678236,
        "Argument of Periapsis(deg)": -0.036085747916675244,
        "Eccentricity": 0.0,
        "Inclination(deg)": 97.0,
        "Latitude(deg)": -11.49812859780967,
        "Longitude(deg)": -102.338469868422,
        "Mean Anomaly(deg)": 348.642433991159,
        "RAAN(deg)": 0.009494418934815438,
        "Satellite Name": "Starlink Shell 3 1631",
        "Satellite Number": 1631,
        "Semi-Major Axis(m)": 6938478.169268562,
        "Time(s)": 910
    },
    {
        "Altitude(m)": 568487.3835285209,
        "Argument of Periapsis(deg)": -0.03648229459707827,
        "Eccentricity": 0.0,
        "Inclination(deg)": 97.0,
        "Latitude(deg)": -10.874475998913649,
        "Longitude(deg)": -102.45930487969316,
        "Mean Anomaly(deg)": 349.26791018886405,
        "RAAN(deg)": 0.0095987532088244,
        "Satellite Name": "Starlink Shell 3 1631",
        "Satellite Number": 1631,
        "Semi-Major Axis(m)": 6938478.169268562,
        "Time(s)": 920
    },
    {
        "Altitude(m)": 568336.7305197251,
        "Argument of Periapsis(deg)": -0.0368788412774813,
        "Eccentricity": 0.0,
        "Inclination(deg)": 97.0,
        "Latitude(deg)": -10.250756765021093,
        "Longitude(deg)": -102.57981518090683,
        "Mean Anomaly(deg)": 349.8933863865691,
        "RAAN(deg)": 0.009703087482833361,
        "Satellite Name": "Starlink Shell 3 1631",
        "Satellite Number": 1631,
        "Semi-Major Axis(m)": 6938478.169268562,
        "Time(s)": 930
    },
    {
        "Altitude(m)": 568189.934093967,
        "Argument of Periapsis(deg)": -0.037275387957884314,
        "Eccentricity": 0.0,
        "Inclination(deg)": 97.0,
        "Latitude(deg)": -9.6269738738452,
        "Longitude(deg)": -102.70002127885738,
        "Mean Anomaly(deg)": 350.5188625842742,
        "RAAN(deg)": 0.00980742175684232,
        "Satellite Name": "Starlink Shell 3 1631",
        "Satellite Number": 1631,
        "Semi-Major Axis(m)": 6938478.169268562,
        "Time(s)": 940
    }
]